<osmChange version="0.6" generator="iD"><create/><modify><way id="1276689430" version="1"><nd ref="11853239275"/><nd ref="11853239175"/><tag k="indoor" v="wall"/><tag k="level" v="2"/></way><way id="1276689269" version="1"><nd ref="11853238395"/><nd ref="11853238394"/><nd ref="11853239112"/><nd ref="11853239069"/><nd ref="11853238395"/><tag k="indoor" v="room"/><tag k="level_name" v="2"/><tag k="name" v="C208"/><tag k="room" v="classroom"/></way><way id="1276689443" version="1"><nd ref="11853239069"/><nd ref="11853239112"/><nd ref="11853239248"/><nd ref="11853239249"/><nd ref="11853239069"/><tag k="indoor" v="room"/><tag k="level_name" v="2"/><tag k="name" v="C207"/><tag k="room" v="classroom"/></way><way id="1276689467" version="1"><nd ref="11853239249"/><nd ref="11853239248"/><nd ref="11853239247"/><nd ref="11853239246"/><nd ref="11853239249"/><tag k="indoor" v="room"/><tag k="level_name" v="2"/><tag k="name" v="C206"/><tag k="room" v="classroom"/></way><way id="1276689339" version="1"><nd ref="11853239246"/><nd ref="11853239247"/><nd ref="11853239113"/><nd ref="11853238430"/><nd ref="11853239246"/><tag k="indoor" v="room"/><tag k="level_name" v="2"/><tag k="name" v="C205"/><tag k="room" v="classroom"/></way><way id="1276689186" version="1"><nd ref="11853238430"/><nd ref="11853239113"/><nd ref="11853239114"/><nd ref="11853237550"/><nd ref="11853238430"/><tag k="indoor" v="room"/><tag k="level_name" v="2"/><tag k="name" v="C204"/><tag k="room" v="classroom"/></way><way id="1276689144" version="1"><nd ref="11853237550"/><nd ref="11853239114"/><nd ref="11853239115"/><nd ref="11853238605"/><nd ref="11853237550"/><tag k="indoor" v="room"/><tag k="level_name" v="2"/><tag k="name" v="C202"/><tag k="room" v="classroom"/></way><way id="1276689233" version="2"><nd ref="11853238604"/><nd ref="11853312272"/><nd ref="11853238605"/><nd ref="11853239115"/><nd ref="11853238320"/><nd ref="11853238318"/><nd ref="11853238604"/><tag k="indoor" v="room"/><tag k="level_name" v="2"/><tag k="name" v="C201"/><tag k="room" v="auditorium"/></way><way id="1276689341" version="1"><nd ref="11853239161"/><nd ref="11853238434"/><nd ref="11853238433"/><nd ref="11853238432"/><nd ref="11853239162"/><nd ref="11853239161"/><tag k="indoor" v="room"/><tag k="level_name" v="2"/><tag k="name" v="C225"/><tag k="room" v="clasroom"/></way><way id="1276689215" version="1"><nd ref="11853239162"/><nd ref="11853238432"/><nd ref="11853237812"/><nd ref="11853239163"/><nd ref="11853239164"/><nd ref="11853239162"/><tag k="indoor" v="room"/><tag k="level_name" v="2"/><tag k="name" v="C226"/><tag k="room" v="classroom"/></way><way id="1276689234" version="1"><nd ref="11853239163"/><nd ref="11853237812"/><nd ref="11853238169"/><nd ref="11853238271"/><nd ref="11853238272"/><nd ref="11853239163"/><tag k="indoor" v="room"/><tag k="level_name" v="2"/><tag k="name" v="C227S"/><tag k="room" v="classroom-"/></way><way id="1276689294" version="1"><nd ref="11853238271"/><nd ref="11853238169"/><nd ref="11853238260"/><nd ref="11853239324"/><nd ref="11853239325"/><nd ref="11853238271"/><tag k="indoor" v="room"/><tag k="level_name" v="2"/><tag k="name" v="C228"/><tag k="room" v="clasroom"/></way><way id="1276689312" version="1"><nd ref="11853239324"/><nd ref="11853238260"/><nd ref="11853238259"/><nd ref="11853238316"/><nd ref="11853238315"/><nd ref="11853239324"/><tag k="indoor" v="room"/><tag k="level_name" v="2"/><tag k="name" v="C229"/><tag k="room" v="auditorium"/></way><way id="1276689083" version="1"><nd ref="11853237743"/><nd ref="11853102420"/><nd ref="11853239162"/><nd ref="11853239164"/><nd ref="11853237743"/><tag k="indoor" v="room"/><tag k="level_name" v="2"/><tag k="name" v="C232"/><tag k="room" v="classroom"/></way><way id="1276689209" version="1"><nd ref="11853237964"/><nd ref="11853237743"/><nd ref="11853239164"/><nd ref="11853239163"/><nd ref="11853238272"/><nd ref="11853237964"/><tag k="indoor" v="room"/><tag k="level_name" v="2"/><tag k="name" v="C234"/><tag k="room" v="classroom"/></way><way id="1276689237" version="1"><nd ref="11853238271"/><nd ref="11853238118"/><nd ref="11853237964"/><nd ref="11853238272"/><nd ref="11853238271"/><tag k="indoor" v="room"/><tag k="level_name" v="2"/><tag k="name" v="C236"/><tag k="room" v="classroom"/></way><way id="1276689249" version="1"><nd ref="11853238216"/><nd ref="11853238118"/><nd ref="11853238271"/><nd ref="11853239325"/><nd ref="11853238216"/><tag k="indoor" v="room"/><tag k="level_name" v="2"/><tag k="name" v="C238"/><tag k="room" v="classroom"/></way><way id="1276689258" version="1"><nd ref="11853238027"/><nd ref="11853238217"/><nd ref="11853238324"/><nd ref="11853238323"/><nd ref="11853238027"/><tag k="indoor" v="room"/><tag k="level_name" v="2"/><tag k="name" v="C239"/><tag k="room" v="clasroom"/></way><way id="1276689162" version="1"><nd ref="11853238612"/><nd ref="11853238027"/><nd ref="11853238323"/><nd ref="11853238611"/><nd ref="11853238612"/><tag k="indoor" v="room"/><tag k="level_name" v="2"/><tag k="name" v="C237"/><tag k="room" v="classroom"/></way><way id="1276689372" version="1"><nd ref="11853238613"/><nd ref="11853238612"/><nd ref="11853238611"/><nd ref="11853238610"/><nd ref="11853238613"/><tag k="indoor" v="room"/><tag k="level_name" v="2"/><tag k="name" v="C235"/><tag k="room" v="classroom"/></way><way id="1276689198" version="1"><nd ref="11853238613"/><nd ref="11853238610"/><nd ref="11853238322"/><nd ref="11853237568"/><nd ref="11853238613"/><tag k="indoor" v="room"/><tag k="level_name" v="2"/><tag k="name" v="C233"/><tag k="room" v="clasroom"/></way><way id="1276689425" version="1"><nd ref="11853238942"/><nd ref="11853239176"/><nd ref="11853239173"/><nd ref="11853238941"/><nd ref="11853238942"/><tag k="indoor" v="room"/><tag k="level_name" v="2"/><tag k="name" v="C242"/><tag k="room" v="classroom"/><tag k="level" v="2"/></way><way id="1276689462" version="1"><nd ref="11853239176"/><nd ref="11853239175"/><nd ref="11853239174"/><nd ref="11853239173"/><nd ref="11853239176"/><tag k="indoor" v="room"/><tag k="level_name" v="2"/><tag k="name" v="C244"/><tag k="room" v="clasroom"/><tag k="level" v="2"/></way><way id="1276689473" version="1"><nd ref="11853239275"/><nd ref="11853239274"/><nd ref="11853239273"/><nd ref="11853239272"/><nd ref="11853239275"/><tag k="indoor" v="room"/><tag k="level_name" v="2"/><tag k="name" v="C245"/><tag k="room" v="classroom"/><tag k="level" v="2"/></way><way id="1276689165" version="1"><nd ref="11853239274"/><nd ref="11853237426"/><nd ref="11853238400"/><nd ref="11853239273"/><nd ref="11853239274"/><tag k="indoor" v="room"/><tag k="level_name" v="2"/><tag k="name" v="C246"/><tag k="room" v="classroom"/><tag k="level" v="2"/></way><way id="1276689156" version="2"><nd ref="11853237426"/><nd ref="11853238402"/><nd ref="1669598699"/><nd ref="11853238400"/><nd ref="11853237426"/><tag k="indoor" v="room"/><tag k="level_name" v="2"/><tag k="name" v="C247"/><tag k="room" v="classroom"/><tag k="level" v="2"/></way></modify><delete if-unused="true"/></osmChange>
